NORAD_CAT_ID,OBJECT_NAME,OBJECT_TYPE,EPOCH,MEAN_MOTION,ECCENTRICITY,INCLINATION,RA_OF_ASC_NODE,ARG_OF_PERICENTER,MEAN_ANOMALY,BSTAR,MEAN_MOTION_DOT,MEAN_MOTION_DDOT,TLE_LINE0,TLE_LINE1,TLE_LINE2,SEMIMAJOR_AXIS,PERIOD,APOGEE,PERIGEE,DECAYED
49416.0,STARLINK-3133,PAYLOAD,2023-04-11 21:16:16,15.08840368,0.0001146,53.2158,320.2319,83.9579,276.1544,0.00035834,5.42e-05,0.0,0 STARLINK-3133,1 49416U 21104J   23101.88629735  .00005420  00000-0  35834-3 0  9994,2 49416  53.2158 320.2319 0001146  83.9579 276.1544 15.08840368 79270,6917.879,95.438,540.537,538.951,0.0
49416.0,STARLINK-3133,PAYLOAD,2023-04-12 06:48:34,15.08843599,0.0001466,53.2159,318.4485,80.9525,279.1633,0.00026629,3.953e-05,0.0,0 STARLINK-3133,1 49416U 21104J   23102.28373788  .00003953  00000-0  26629-3 0  9994,2 49416  53.2159 318.4485 0001466  80.9525 279.1633 15.08843599 78244,6917.869,95.437,540.749,538.72,0.0
49416.0,STARLINK-3133,PAYLOAD,2023-04-13 00:17:49,15.08845745,0.00012,53.215,315.1777,93.1854,266.9275,0.00035241,5.326e-05,0.0,0 STARLINK-3133,1 49416U 21104J   23103.01237814  .00005326  00000-0  35241-3 0  9991,2 49416  53.2150 315.1777 0001200  93.1854 266.9275 15.08845745 78353,6917.863,95.437,540.558,538.898,0.0
49416.0,STARLINK-3133,PAYLOAD,2023-04-14 12:51:41,15.08848158,0.0001198,53.2148,308.3384,84.7779,275.335,0.00025517,3.776e-05,0.0,0 STARLINK-3133,1 49416U 21104J   23104.53589765  .00003776  00000-0  25517-3 0  9996,2 49416  53.2148 308.3384 0001198  84.7779 275.3350 15.08848158 78580,6917.855,95.437,540.549,538.892,0.0
49416.0,STARLINK-3133,PAYLOAD,2023-04-15 12:42:28,15.08838905,0.0001826,53.2147,303.8778,99.3111,260.8088,-7.739e-05,-1.52e-05,0.0,0 STARLINK-3133,1 49416U 21104J   23105.52949553 -.00001520  00000-0 -77390-4 0  9995,2 49416  53.2147 303.8778 0001826  99.3111 260.8088 15.08838905 79820,6917.884,95.438,541.012,538.486,0.0
49416.0,STARLINK-3133,PAYLOAD,2023-04-15 20:39:24,15.08836503,0.0001306,53.2146,302.3908,90.6907,269.4235,-7.7492e-05,-1.521e-05,0.0,0 STARLINK-3133,1 49416U 21104J   23105.86069762 -.00001521  00000-0 -77492-4 0  9991,2 49416  53.2146 302.3908 0001306  90.6907 269.4235 15.08836503 78783,6917.891,95.438,540.66,538.853,0.0
49416.0,STARLINK-3133,PAYLOAD,2023-04-16 12:33:14,15.08847336,6.05e-05,53.2165,299.4151,155.8824,204.2197,0.00052319,8.05e-05,0.0,0 STARLINK-3133,1 49416U 21104J   23106.52309014  .00008050  00000-0  52319-3 0  9994,2 49416  53.2165 299.4151 0000605 155.8824 204.2197 15.08847336 79975,6917.858,95.437,540.141,539.304,0.0
49416.0,STARLINK-3133,PAYLOAD,2023-04-16 20:30:09,15.08892806,0.000101,53.2151,297.9305,104.6866,255.4238,0.0020648,0.00032774,0.0,0 STARLINK-3133,1 49416U 21104J   23106.85428203  .00032774  00000-0  20648-2 0  9991,2 49416  53.2151 297.9305 0001010 104.6866 255.4238 15.08892806 80027,6917.719,95.434,540.283,538.885,0.0
49416.0,STARLINK-3133,PAYLOAD,2023-04-17 12:24:01,15.08810736,0.0001034,53.2156,294.9558,87.609,272.502,-0.001278,-0.00020553,0.0,0 STARLINK-3133,1 49416U 21104J   23107.51668932 -.00020553  00000-0 -12780-2 0  9992,2 49416  53.2156 294.9558 0001034  87.6090 272.5020 15.08810736 80126,6917.97,95.439,540.55,539.12,0.0
49416.0,STARLINK-3133,PAYLOAD,2023-04-17 17:10:12,15.08809001,0.0001346,53.2143,294.0648,81.5323,278.5821,0.00069862,0.00010839,0.0,0 STARLINK-3133,1 49416U 21104J   23107.71541735  .00010839  00000-0  69862-3 0  9993,2 49416  53.2143 294.0648 0001346  81.5323 278.5821 15.08809001 79060,6917.975,95.44,540.771,538.909,0.0
49416.0,STARLINK-3133,PAYLOAD,2023-04-18 12:14:50,15.08834737,0.0001432,53.2142,290.4956,76.1385,283.9767,0.0013352,0.00021023,0.0,0 STARLINK-3133,1 49416U 21104J   23108.51030838  .00021023  00000-0  13352-2 0  9998,2 49416  53.2142 290.4956 0001432  76.1385 283.9767 15.08834737 79181,6917.896,95.438,540.752,538.771,0.0
49416.0,STARLINK-3133,PAYLOAD,2023-04-18 18:36:23,15.08848621,0.0001437,53.2143,289.3061,75.7874,284.3277,0.0014966,0.00023616,0.0,0 STARLINK-3133,1 49416U 21104J   23108.77526739  .00023616  00000-0  14966-2 0  9998,2 49416  53.2143 289.3061 0001437  75.7874 284.3277 15.08848621 79222,6917.854,95.437,540.713,538.725,0.0
49416.0,STARLINK-3133,PAYLOAD,2023-04-19 12:05:37,15.08853211,0.0001386,53.2144,286.0345,69.3086,290.8055,0.0011701,0.0001839,0.0,0 STARLINK-3133,1 49416U 21104J   23109.50390810  .00018390  00000-0  11701-2 0  9996,2 49416  53.2144 286.0345 0001386  69.3086 290.8055 15.08853211 80420,6917.84,95.437,540.664,538.746,0.0
49416.0,STARLINK-3133,PAYLOAD,2023-04-19 16:51:46,15.08854354,0.0001323,53.214,285.1422,70.8756,289.2379,0.00080506,0.00012553,0.0,0 STARLINK-3133,1 49416U 21104J   23109.70262655  .00012553  00000-0  80506-3 0  9998,2 49416  53.2140 285.1422 0001323  70.8756 289.2379 15.08854354 79365,6917.837,95.437,540.617,538.786,0.0
49416.0,STARLINK-3133,PAYLOAD,2023-04-19 18:27:10,15.0885194,0.0001387,53.2148,284.8442,78.7226,281.3922,0.00062771,9.719e-05,0.0,0 STARLINK-3133,1 49416U 21104J   23109.76886586  .00009719  00000-0  62771-3 0  9993,2 49416  53.2148 284.8442 0001387  78.7226 281.3922 15.08851940 80468,6917.844,95.437,540.668,538.749,0.0
49416.0,STARLINK-3133,PAYLOAD,2023-04-20 11:56:24,15.08839896,0.0001549,53.2152,281.5743,90.4241,269.6929,0.0001167,1.57e-05,0.0,0 STARLINK-3133,1 49416U 21104J   23110.49750731  .00001570  00000-0  11670-3 0  9996,2 49416  53.2152 281.5743 0001549  90.4241 269.6929 15.08839896 79481,6917.881,95.438,540.817,538.674,0.0
49416.0,STARLINK-3133,PAYLOAD,2023-04-20 15:07:10,15.08841242,0.0001421,53.2154,280.9806,87.4173,272.6982,8.9668e-05,1.139e-05,0.0,0 STARLINK-3133,1 49416U 21104J   23110.62998727  .00001139  00000-0  89668-4 0  9994,2 49416  53.2154 280.9806 0001421  87.4173 272.6982 15.08841242 79509,6917.877,95.437,540.725,538.759,0.0
49416.0,STARLINK-3133,PAYLOAD,2023-04-21 03:50:15,15.08834739,7.2e-05,53.215,278.6018,93.4933,266.6141,-9.4059e-05,-1.784e-05,0.0,0 STARLINK-3133,1 49416U 21104J   23111.15990605 -.00001784  00000-0 -94059-4 0  9998,2 49416  53.2150 278.6018 0000720  93.4933 266.6141 15.08834739 79587,6917.896,95.438,540.26,539.263,0.0
49416.0,STARLINK-3133,PAYLOAD,2023-04-21 18:08:44,15.08839593,0.0001187,53.2151,275.9248,90.2878,269.825,5.7073e-05,6.21e-06,0.0,0 STARLINK-3133,1 49416U 21104J   23111.75606733  .00000621  00000-0  57073-4 0  9992,2 49416  53.2151 275.9248 0001187  90.2878 269.8250 15.08839593 79673,6917.882,95.438,540.568,538.925,0.0
49416.0,STARLINK-3133,PAYLOAD,2023-04-22 11:37:58,15.08840917,0.000108,53.215,272.6532,96.7598,263.3517,8.1923e-05,1.016e-05,0.0,0 STARLINK-3133,1 49416U 21104J   23112.48470718  .00001016  00000-0  81923-4 0  9995,2 49416  53.2150 272.6532 0001080  96.7598 263.3517 15.08840917 80875,6917.878,95.437,540.49,538.995,0.0
49416.0,STARLINK-3133,PAYLOAD,2023-04-23 03:31:49,15.08843872,9.07e-05,53.215,269.6787,83.3176,276.7919,3.4588e-05,2.63e-06,0.0,0 STARLINK-3133,1 49416U 21104J   23113.14710430  .00000263  00000-0  34588-4 0  9995,2 49416  53.2150 269.6787 0000907  83.3176 276.7919 15.08843872 79880,6917.869,95.437,540.361,539.106,0.0
49416.0,STARLINK-3133,PAYLOAD,2023-04-23 22:36:27,15.08842069,0.0001069,53.2153,266.1109,80.1362,279.9751,8.7247e-05,1.101e-05,0.0,0 STARLINK-3133,1 49416U 21104J   23113.94198759  .00001101  00000-0  87247-4 0  9999,2 49416  53.2153 266.1109 0001069  80.1362 279.9751 15.08842069 81097,6917.874,95.437,540.479,539.0,0.0
49416.0,STARLINK-3133,PAYLOAD,2023-04-24 16:05:40,15.08883698,0.0002187,53.217,262.8407,93.3561,266.7681,0.00067618,0.00010503,0.0,0 STARLINK-3133,1 49416U 21104J   23114.67060686  .00010503  00000-0  67618-3 0  9992,2 49416  53.2170 262.8407 0002187  93.3561 266.7681 15.08883698 81201,6917.747,95.435,541.125,538.099,0.0
49416.0,STARLINK-3133,PAYLOAD,2023-04-25 09:34:58,15.08792096,0.0001285,53.216,259.5705,94.8508,265.2631,-0.0005831,-9.544e-05,0.0,0 STARLINK-3133,1 49416U 21104J   23115.39929029 -.00009544  00000-0 -58310-3 0  9991,2 49416  53.2160 259.5705 0001285  94.8508 265.2631 15.08792096 80220,6918.027,95.441,540.781,539.003,0.0
49416.0,STARLINK-3133,PAYLOAD,2023-04-26 12:36:31,15.08844876,9.44e-05,53.2165,254.5151,84.2675,275.8425,-2.7351e-05,-7.23e-06,0.0,0 STARLINK-3133,1 49416U 21104J   23116.52536090 -.00000723  00000-0 -27351-4 0  9991,2 49416  53.2165 254.5151 0000944  84.2675 275.8425 15.08844876 80394,6917.865,95.437,540.384,539.077,0.0
49416.0,STARLINK-3133,PAYLOAD,2023-04-26 18:58:03,15.0885693,0.000136,53.2151,253.3239,103.3005,256.8138,0.0002386,3.513e-05,0.0,0 STARLINK-3133,1 49416U 21104J   23116.79031444  .00003513  00000-0  23860-3 0  9991,2 49416  53.2151 253.3239 0001360 103.3005 256.8138 15.08856930 80435,6917.829,95.436,540.634,538.753,0.0
49416.0,STARLINK-3133,PAYLOAD,2023-04-27 12:27:18,15.0883931,0.0001643,53.216,250.0558,104.718,255.3994,0.00064755,0.00010033,0.0,0 STARLINK-3133,1 49416U 21104J   23117.51896750  .00010033  00000-0  64755-3 0  9994,2 49416  53.2160 250.0558 0001643 104.7180 255.3994 15.08839310 80545,6917.882,95.438,540.884,538.611,0.0
49416.0,STARLINK-3133,PAYLOAD,2023-04-27 18:48:50,15.08853429,0.0001201,53.2141,248.862,107.5267,252.5857,0.00070137,0.00010896,0.0,0 STARLINK-3133,1 49416U 21104J   23117.78391788  .00010896  00000-0  70137-3 0  9992,2 49416  53.2141 248.8620 0001201 107.5267 252.5857 15.08853429 81675,6917.839,95.437,540.535,538.874,0.0
49416.0,STARLINK-3133,PAYLOAD,2023-04-28 12:18:05,15.08844115,0.0001351,53.213,245.5891,111.4171,248.6965,-9.2575e-05,-1.761e-05,0.0,0 STARLINK-3133,1 49416U 21104J   23118.51256032 -.00001761  00000-0 -92575-4 0  9990,2 49416  53.2130 245.5891 0001351 111.4171 248.6965 15.08844115 81781,6917.868,95.437,540.667,538.798,0.0
49416.0,STARLINK-3133,PAYLOAD,2023-04-29 13:44:15,15.08845002,0.0001338,53.215,240.8344,95.8486,264.2659,5.5911e-05,6.02e-06,0.0,0 STARLINK-3133,1 49416U 21104J   23119.57239744  .00000602  00000-0  55911-4 0  9992,2 49416  53.2150 240.8344 0001338  95.8486 264.2659 15.08845002 81941,6917.865,95.437,540.656,538.804,0.0
